NORAD_CAT_ID,OBJECT_NAME,OBJECT_TYPE,EPOCH,MEAN_MOTION,ECCENTRICITY,INCLINATION,RA_OF_ASC_NODE,ARG_OF_PERICENTER,MEAN_ANOMALY,BSTAR,MEAN_MOTION_DOT,MEAN_MOTION_DDOT,TLE_LINE0,TLE_LINE1,TLE_LINE2,SEMIMAJOR_AXIS,PERIOD,APOGEE,PERIGEE,DECAYED
54067.0,STARLINK-5174,PAYLOAD,2023-11-29 10:04:21,15.08835325,0.000127,53.2177,115.607,101.8364,258.2771,3.8276e-05,3.21e-06,0.0,0 STARLINK-5174,1 54067U 22136S   23333.41969711  .00000321  00000-0  38276-4 0  9994,2 54067  53.2177 115.6070 0001270 101.8364 258.2771 15.08835325 61832,6917.895,95.438,540.638,538.881,0.0
54067.0,STARLINK-5174,PAYLOAD,2023-11-29 14:50:30,15.08841371,0.0001418,53.2178,114.7134,113.5647,246.5495,7.4155e-05,8.92e-06,0.0,0 STARLINK-5174,1 54067U 22136S   23333.61841266  .00000892  00000-0  74155-4 0  9999,2 54067  53.2178 114.7134 0001418 113.5647 246.5495 15.08841371 61383,6917.876,95.437,540.722,538.76,0.0
54067.0,STARLINK-5174,PAYLOAD,2023-11-30 09:55:09,15.08842821,0.0001278,53.2178,111.1524,97.0158,263.0979,-3.8367e-05,-8.98e-06,0.0,0 STARLINK-5174,1 54067U 22136S   23334.41330001 -.00000898  00000-0 -38367-4 0  9991,2 54067  53.2178 111.1524 0001278  97.0158 263.0979 15.08842821 61982,6917.872,95.437,540.621,538.853,0.0
54067.0,STARLINK-5174,PAYLOAD,2023-11-30 14:41:12,15.0892681,0.0001641,53.218,110.2562,137.8562,222.2556,0.00068326,0.00010629,0.0,0 STARLINK-5174,1 54067U 22136S   23334.61194705  .00010629  00000-0  68326-3 0  9990,2 54067  53.2180 110.2562 0001641 137.8562 222.2556 15.08926810 62017,6917.615,95.432,540.615,538.345,0.0
54067.0,STARLINK-5174,PAYLOAD,2023-12-01 08:10:33,15.08826656,0.0001918,53.2176,106.9842,118.8369,241.2816,-2.9503e-06,-3.35e-06,0.0,0 STARLINK-5174,1 54067U 22136S   23335.34066981 -.00000335  00000-0 -29503-5 0  9996,2 54067  53.2176 106.9842 0001918 118.8369 241.2816 15.08826656 62125,6917.921,95.438,541.113,538.459,0.0
54067.0,STARLINK-5174,PAYLOAD,2023-12-01 14:32:05,15.08843179,0.0001523,53.2178,105.7976,104.2102,255.9059,0.00010374,1.364e-05,0.0,0 STARLINK-5174,1 54067U 22136S   23335.60561757  .00001364  00000-0  10374-3 0  9991,2 54067  53.2178 105.7976 0001523 104.2102 255.9059 15.08843179 62162,6917.871,95.437,540.789,538.682,0.0
54067.0,STARLINK-5174,PAYLOAD,2023-12-02 14:22:51,15.08854867,0.0001436,53.2172,101.3333,118.7199,241.3937,0.00018778,2.703e-05,0.0,0 STARLINK-5174,1 54067U 22136S   23336.59920411  .00002703  00000-0  18778-3 0  9990,2 54067  53.2172 101.3333 0001436 118.7199 241.3937 15.08854867 61837,6917.835,95.437,540.693,538.707,0.0
54067.0,STARLINK-5174,PAYLOAD,2023-12-03 14:13:40,15.08828516,0.0001934,53.2177,96.8765,142.8498,217.2628,-8.3693e-05,-1.619e-05,0.0,0 STARLINK-5174,1 54067U 22136S   23337.59283362 -.00001619  00000-0 -83693-4 0  9994,2 54067  53.2177  96.8765 0001934 142.8498 217.2628 15.08828516 61989,6917.915,95.438,541.118,538.443,0.0
54067.0,STARLINK-5174,PAYLOAD,2023-12-03 17:24:27,15.08821459,0.000126,53.2173,96.2818,81.2266,278.8869,-0.00012911,-2.341e-05,0.0,0 STARLINK-5174,1 54067U 22136S   23337.72532388 -.00002341  00000-0 -12911-3 0  9991,2 54067  53.2173  96.2818 0001260  81.2266 278.8869 15.08821459 62484,6917.937,95.439,540.674,538.93,0.0
54067.0,STARLINK-5174,PAYLOAD,2023-12-04 12:29:06,15.08823888,0.0001566,53.2173,92.7178,50.6403,309.4728,-6.2972e-05,-1.29e-05,0.0,0 STARLINK-5174,1 54067U 22136S   23338.52020899 -.00001290  00000-0 -62972-4 0  9994,2 54067  53.2173  92.7178 0001566  50.6403 309.4728 15.08823888 62120,6917.93,95.439,540.878,538.711,0.0
54067.0,STARLINK-5174,PAYLOAD,2023-12-05 10:44:28,15.08839072,0.0001176,53.2169,88.5515,67.8714,292.2403,0.00031496,4.728e-05,0.0,0 STARLINK-5174,1 54067U 22136S   23339.44755317  .00004728  00000-0  31496-3 0  9999,2 54067  53.2169  88.5515 0001176  67.8714 292.2403 15.08839072 62744,6917.883,95.438,540.562,538.935,0.0
54067.0,STARLINK-5174,PAYLOAD,2023-12-05 12:19:51,15.08844078,0.0001759,53.2185,88.2574,44.1759,315.9373,0.00032853,4.945e-05,0.0,0 STARLINK-5174,1 54067U 22136S   23339.51379241  .00004945  00000-0  32853-3 0  9994,2 54067  53.2185  88.2574 0001759  44.1759 315.9373 15.08844078 62277,6917.868,95.437,540.95,538.516,0.0
54067.0,STARLINK-5174,PAYLOAD,2023-12-05 17:06:00,15.0884874,0.0001486,53.2173,87.3609,65.1748,294.9399,0.00035743,5.406e-05,0.0,0 STARLINK-5174,1 54067U 22136S   23339.71250688  .00005406  00000-0  35743-3 0  9993,2 54067  53.2173  87.3609 0001486  65.1748 294.9399 15.08848740 62781,6917.854,95.437,540.747,538.691,0.0
54067.0,STARLINK-5174,PAYLOAD,2023-12-06 12:10:39,15.08839156,0.0001334,53.2168,83.7868,110.2789,249.8347,2.2438e-05,6.9e-07,0.0,0 STARLINK-5174,1 54067U 22136S   23340.50740206  .00000069  00000-0  22438-4 0  9990,2 54067  53.2168  83.7868 0001334 110.2789 249.8347 15.08839156 62908,6917.883,95.438,540.671,538.825,0.0
54067.0,STARLINK-5174,PAYLOAD,2023-12-07 12:01:26,15.08854252,0.0001277,53.2185,79.3313,85.2978,274.816,-5.0864e-05,-1.098e-05,0.0,0 STARLINK-5174,1 54067U 22136S   23341.50100057 -.00001098  00000-0 -50864-4 0  9994,2 54067  53.2185  79.3313 0001277  85.2978 274.8160 15.08854252 62578,6917.837,95.437,540.585,538.818,0.0
54067.0,STARLINK-5174,PAYLOAD,2023-12-08 11:52:12,15.08846494,0.0001339,53.2189,74.8718,92.8493,267.2652,0.00030753,4.611e-05,0.0,0 STARLINK-5174,1 54067U 22136S   23342.49458860  .00004611  00000-0  30753-3 0  9997,2 54067  53.2189  74.8718 0001339  92.8493 267.2652 15.08846494 62724,6917.861,95.437,540.652,538.799,0.0
54067.0,STARLINK-5174,PAYLOAD,2023-12-09 11:43:00,15.08847693,0.0001253,53.2189,70.412,85.4394,274.6741,-9.6124e-06,-4.41e-06,0.0,0 STARLINK-5174,1 54067U 22136S   23343.48819678 -.00000441  00000-0 -96124-5 0  9990,2 54067  53.2189  70.4120 0001253  85.4394 274.6741 15.08847693 63359,6917.857,95.437,540.589,538.855,0.0
54067.0,STARLINK-5174,PAYLOAD,2023-12-09 13:18:23,15.08848343,0.0001104,53.218,70.1105,80.552,279.5597,-1.4699e-05,-5.22e-06,0.0,0 STARLINK-5174,1 54067U 22136S   23343.55443554 -.00000522  00000-0 -14699-4 0  9990,2 54067  53.2180  70.1105 0001104  80.5520 279.5597 15.08848343 62885,6917.855,95.437,540.484,538.956,0.0
54067.0,STARLINK-5174,PAYLOAD,2023-12-09 14:53:46,15.08848464,0.0001112,53.2181,69.8136,82.2165,277.8953,-9.8554e-06,-4.45e-06,0.0,0 STARLINK-5174,1 54067U 22136S   23343.62067498 -.00000445  00000-0 -98554-5 0  9994,2 54067  53.2181  69.8136 0001112  82.2165 277.8953 15.08848464 62890,6917.855,95.437,540.489,538.95,0.0
54067.0,STARLINK-5174,PAYLOAD,2023-12-10 13:09:11,15.08813621,0.0001394,53.2185,65.655,91.8713,268.2438,0.00025677,3.798e-05,0.0,0 STARLINK-5174,1 54067U 22136S   23344.54804412  .00003798  00000-0  25677-3 0  9997,2 54067  53.2185  65.6550 0001394  91.8713 268.2438 15.08813621 63031,6917.961,95.439,540.79,538.862,0.0
54067.0,STARLINK-5174,PAYLOAD,2023-12-11 11:24:33,15.08843811,0.0001315,53.2188,61.4898,75.7933,284.3205,7.5246e-05,9.1e-06,0.0,0 STARLINK-5174,1 54067U 22136S   23345.47539100  .00000910  00000-0  75246-4 0  9990,2 54067  53.2188  61.4898 0001315  75.7933 284.3205 15.08843811 63654,6917.869,95.437,540.643,538.824,0.0
54067.0,STARLINK-5174,PAYLOAD,2023-12-11 12:59:56,15.08845657,0.0001339,53.219,61.194,74.9703,285.1437,9.1191e-05,1.164e-05,0.0,0 STARLINK-5174,1 54067U 22136S   23345.54162970  .00001164  00000-0  91191-4 0  9994,2 54067  53.2190  61.1940 0001339  74.9703 285.1437 15.08845657 63188,6917.863,95.437,540.654,538.802,0.0
54067.0,STARLINK-5174,PAYLOAD,2023-12-12 11:15:21,15.08841851,0.000176,53.2189,57.0351,59.8053,300.3113,3.5246e-05,2.73e-06,0.0,0 STARLINK-5174,1 54067U 22136S   23346.46899628  .00000273  00000-0  35246-4 0  9992,2 54067  53.2189  57.0351 0001760  59.8053 300.3113 15.08841851 63806,6917.875,95.437,540.957,538.522,0.0
54067.0,STARLINK-5174,PAYLOAD,2023-12-13 11:06:07,15.08847338,0.0001465,53.2182,52.5753,73.0886,287.0267,4.2475e-05,3.88e-06,0.0,0 STARLINK-5174,1 54067U 22136S   23347.46258863  .00000388  00000-0  42475-4 0  9992,2 54067  53.2182  52.5753 0001465  73.0886 287.0267 15.08847338 63479,6917.858,95.437,540.736,538.709,0.0
54067.0,STARLINK-5174,PAYLOAD,2023-12-14 10:56:55,15.08838838,0.0001509,53.2192,48.1081,98.7161,261.4002,4.1421e-06,-2.22e-06,0.0,0 STARLINK-5174,1 54067U 22136S   23348.45619232 -.00000222  00000-0  41421-5 0  9992,2 54067  53.2192  48.1081 0001509  98.7161 261.4002 15.08838838 64103,6917.884,95.438,540.793,538.705,0.0
54067.0,STARLINK-5174,PAYLOAD,2023-12-15 09:12:19,15.08838138,0.0001665,53.2189,43.9476,115.8809,244.2355,-4.9025e-05,-1.068e-05,0.0,0 STARLINK-5174,1 54067U 22136S   23349.38355534 -.00001068  00000-0 -49025-4 0  9994,2 54067  53.2189  43.9476 0001665 115.8809 244.2355 15.08838138 63767,6917.886,95.438,540.903,538.599,0.0
54067.0,STARLINK-5174,PAYLOAD,2023-12-16 10:38:29,15.08835462,0.00015,53.219,39.1902,102.3063,257.8097,4.2699e-05,3.92e-06,0.0,0 STARLINK-5174,1 54067U 22136S   23350.44339848  .00000392  00000-0  42699-4 0  9990,2 54067  53.2190  39.1902 0001500 102.3063 257.8097 15.08835462 64403,6917.894,95.438,540.797,538.722,0.0
54067.0,STARLINK-5174,PAYLOAD,2023-12-17 10:29:17,15.08835924,0.0001617,53.2193,34.7314,77.9618,282.1556,7.2192e-05,8.61e-06,0.0,0 STARLINK-5174,1 54067U 22136S   23351.43700312  .00000861  00000-0  72192-4 0  9990,2 54067  53.2193  34.7314 0001617  77.9618 282.1556 15.08835924 64073,6917.893,95.438,540.876,538.639,0.0
54067.0,STARLINK-5174,PAYLOAD,2023-12-18 10:20:03,15.08819161,0.0001878,53.2197,30.268,70.3334,289.7861,0.00048608,7.452e-05,0.0,0 STARLINK-5174,1 54067U 22136S   23352.43060132  .00007452  00000-0  48608-3 0  9997,2 54067  53.2197  30.2680 0001878  70.3334 289.7861 15.08819161 64702,6917.944,95.439,541.108,538.51,0.0
54067.0,STARLINK-5174,PAYLOAD,2023-12-19 10:10:51,15.08842045,0.0001925,53.2208,25.8031,66.5786,293.5408,3.7089e-05,3.02e-06,0.0,0 STARLINK-5174,1 54067U 22136S   23353.42420277  .00000302  00000-0  37089-4 0  9996,2 54067  53.2208  25.8031 0001925  66.5786 293.5408 15.08842045 64376,6917.874,95.437,541.071,538.407,0.0
